# From MPC 75007
C/1995 O1 (Hale-Bopp),e,89.2999,282.6776,130.8816,184.6797,0.0003927,0.99491255,0.0000,03/29.2846/1997,2000,g -2.0,4.0
# From NK 1615
P/1996 R2 (Lagerkvist),e,2.6014,40.0570,333.2242,3.772761,0.1344978,0.31283484,256.7631,01/05.0/2017,2000,g 11.5,4.0
# From MPC 30063
P/1997 B1 (Kobayashi),e,12.3689,329.0063,183.3793,8.556100,0.0393813,0.76102858,284.8991,01/05.0/2017,2000,g 15.0,2.0
# From MPC 75703
P/1998 VS24 (LINEAR),e,5.0228,159.0570,245.0176,4.533785,0.1020969,0.24164976,321.2450,01/05.0/2017,2000,g 13.0,2.0
# From NK 1780
P/1999 D1 (Hermann),e,21.3523,348.7506,174.0923,5.757331,0.0713464,0.71394726,105.4691,01/05.0/2017,2000,g 15.0,4.0
# From CCO 17
P/1999 R1 (SOHO),e,12.5530,359.6165,48.9776,2.515663,0.2470162,0.97883116,0.0000,09/04.0194/2015,2000,g 27.0,6.0
# From NK 731
P/1999 RO28 (LONEOS),e,8.1025,147.4791,220.6082,3.485986,0.1514313,0.66320092,223.0076,01/05.0/2017,2000,g 20.0,2.0
# From MPC 75704
P/1999 XN120 (Catalina),e,5.0281,285.2974,162.0268,4.183409,0.1151884,0.21183014,341.7434,01/05.0/2017,2000,g 13.5,2.0
# From NK 744
P/2000 R2 (LINEAR),e,11.7810,160.6486,176.5017,3.454453,0.1535094,0.53622565,223.2357,01/05.0/2017,2000,g 18.0,4.0
# From MPC 75704
P/2000 S1 (Skiff),e,21.0180,28.1586,309.0938,6.624319,0.0578086,0.61716396,350.1535,01/05.0/2017,2000,g 10.0,4.0
# From MPC 73461
P/2000 S4 (LINEAR-Spacewatch),e,28.4553,174.1001,172.5170,7.133209,0.0517341,0.68035088,308.4888,01/05.0/2017,2000,g 17.5,2.0
# From MPC 75704
P/2001 BB50 (LINEAR-NEAT),e,10.3669,351.1811,193.5733,5.732431,0.0718118,0.58749440,61.3348,01/05.0/2017,2000,g 13.0,4.0
# From MPC 43019
P/2001 H5 (NEAT),e,8.3813,328.6920,224.7526,6.091551,0.0655560,0.60008137,28.9240,01/05.0/2017,2000,g 12.0,4.0
# From MPC 75704
P/2001 Q6 (NEAT),e,56.8519,21.9977,43.1472,7.928532,0.0441484,0.82308871,244.6242,01/05.0/2017,2000,g 13.5,4.0
# From MPC 82311
P/2001 R6 (LINEAR-Skiff),e,17.3792,67.3357,308.4722,4.178763,0.1153805,0.47548206,286.4618,01/05.0/2017,2000,g 13.0,4.0
# From MPC 75704
P/2001 T3 (NEAT),e,19.3973,55.1713,356.8243,6.441767,0.0602832,0.61432639,328.5449,01/05.0/2017,2000,g 12.0,4.0
# From MPC 47727
P/2002 EJ57 (LINEAR),e,4.9766,330.4526,166.9651,6.470549,0.0598815,0.59392907,328.3000,01/05.0/2017,2000,g 12.5,4.0
# From MPC 82311
P/2002 T5 (LINEAR),e,30.8852,123.1211,327.0447,6.983060,0.0534116,0.43758262,263.4869,01/05.0/2017,2000,g  8.0,4.0
# From MPC 75704
P/2002 T6 (NEAT-LINEAR),e,10.9790,208.6116,217.8944,7.637273,0.0466978,0.55870350,230.8290,01/05.0/2017,2000,g 10.5,4.0
# From MPC 75007
C/2002 VQ94 (LINEAR),e,70.4405,34.8951,100.1251,193.5086,0.0003661,0.96483671,1.4595,01/05.0/2017,2000,g  9.5,2.0
# From MPC 50354
P/2003 F2 (NEAT),e,11.6043,359.1284,191.6341,6.500939,0.0594621,0.54262776,298.1393,01/05.0/2017,2000,g 16.5,2.0
# From MPC 75704
P/2003 L1 (Scotti),e,9.0202,226.0574,354.5446,6.725431,0.0565098,0.25288372,287.6917,01/05.0/2017,2000,g  8.5,4.0
# From MPC 50139
P/2003 QX29 (NEAT),e,11.3835,264.5442,37.1694,8.055005,0.0431127,0.47044124,224.6541,01/05.0/2017,2000,g  8.5,4.0
# From MPC 99268
P/2003 T12 (SOHO),e,11.4564,176.4000,217.7719,2.572528,0.2388712,0.77555330,72.0037,01/05.0/2017,2000,g 17.0,4.0
# From MPC 75705
P/2003 U3 (NEAT),e,7.0041,348.0181,356.9227,5.060306,0.0865843,0.50857778,70.3890,01/05.0/2017,2000,g 13.5,4.0
# From MPC 82312
P/2004 A1 (LONEOS),e,10.5654,124.9262,21.6982,7.931647,0.0441224,0.31219077,198.3409,01/05.0/2017,2000,g  6.5,4.0
# From MPC 54558
P/2004 DO29 (Spacewatch-LINEAR),e,14.5387,147.5132,40.6033,7.281154,0.0501653,0.44278124,224.3941,01/05.0/2017,2000,g 13.5,2.0
# From MPC 54823
P/2004 FY140 (LINEAR),e,2.1370,326.7727,242.1141,4.892854,0.0910669,0.17020322,48.1884,01/05.0/2017,2000,g 12.5,2.0
# From MPC 53304
P/2004 R3 (LINEAR-NEAT),e,12.8409,306.4269,41.2625,4.716295,0.0962283,0.26459100,192.3666,01/05.0/2017,2000,g 14.5,4.0
# From CCO 17
P/2004 T1 (LINEAR-NEAT),e,11.0329,51.4619,336.3602,3.475888,0.1520916,0.50637081,317.2176,01/05.0/2017,2000,g 12.5,4.0
# From MPC 55521
P/2004 V3 (Siding Spring),e,50.3630,356.0991,322.2908,7.147290,0.0515813,0.44471613,230.1718,01/05.0/2017,2000,g 11.5,4.0
# From MPC 75705
P/2004 V5 (LINEAR-Hill),e,19.3530,47.7290,88.0735,7.953432,0.0439412,0.44624095,189.8130,01/05.0/2017,2000,g  8.0,4.0
# From MPC 75705
P/2004 WR9 (LINEAR),e,4.9312,24.8724,72.1404,6.137536,0.0648206,0.68301834,283.3525,01/05.0/2017,2000,g 14.5,4.0
# From MPC 54164
P/2005 E1 (Tubbiolo),e,4.2691,335.7011,194.1059,7.031774,0.0528575,0.37678701,230.2024,01/05.0/2017,2000,g 10.0,4.0
# From MPC 54823
P/2005 GF8 (LONEOS),e,1.1913,314.9152,285.3062,5.856878,0.0695352,0.51602272,290.5461,01/05.0/2017,2000,g 11.5,4.0
# From MPC 75290
P/2005 JN (Spacewatch),e,8.8567,70.7684,153.4205,3.497437,0.1506882,0.34873365,275.0079,01/05.0/2017,2000,g 14.0,4.0
# From MPC 79019
P/2005 J1 (McNaught),e,31.7608,268.7928,338.9153,3.568832,0.1461891,0.57005029,265.5605,01/05.0/2017,2000,g 16.5,4.0
# From MPC 75705
P/2005 JD108 (Catalina-NEAT),e,3.2789,223.8621,90.4004,6.488107,0.0596386,0.37458051,250.9020,01/05.0/2017,2000,g 10.0,4.0
# From MPC 74246
P/2005 L1 (McNaught),e,7.7324,138.2526,149.4619,3.982046,0.1240351,0.20783665,141.2176,01/05.0/2017,2000,g  9.5,4.0
# From MPC 87062
C/2005 L3 (McNaught),e,139.4639,288.8083,47.0609,2416,0.0000083,0.99768457,0.0000,01/10.7871/2008,2000,g  4.0,4.0
# From MPC 75706
P/2005 R1 (NEAT),e,15.4845,257.9800,118.8068,5.520373,0.0759891,0.62536441,313.0802,01/05.0/2017,2000,g 14.0,4.0
# From MPC 75706
P/2005 S2 (Skiff),e,3.1365,161.2002,230.3745,8.017832,0.0434129,0.19576856,167.3091,01/05.0/2017,2000,g  7.5,4.0
# From MPC 75706
P/2005 SB216 (LONEOS),e,24.0528,1.3834,83.6041,7.112090,0.0519647,0.46347559,188.0589,01/05.0/2017,2000,g 12.0,2.0
# From MPC 55717
P/2005 T2 (Christensen),e,8.2928,260.2518,59.1940,3.837821,0.1310922,0.41780814,203.9409,01/05.0/2017,2000,g 14.5,4.0
# From MPC 73461
P/2005 T3 (Read),e,6.2461,27.9584,8.8649,7.559463,0.0474207,0.17085234,190.7367,01/05.0/2017,2000,g  9.0,4.0
# From MPC 73461
P/2005 T4 (SWAN),e,160.0663,25.3751,41.2937,9.355681,0.0344422,0.93147076,141.5182,01/05.0/2017,2000,g 15.0,4.0
# From MPC 75706
P/2005 T5 (Broughton),e,21.3373,57.0226,304.6200,7.291179,0.0500619,0.55002597,205.1620,01/05.0/2017,2000,g 11.0,4.0
# From MPC 56954
P/2005 W3 (Kowalski),e,16.4443,210.4139,200.1712,6.339298,0.0617508,0.54261130,253.7650,01/05.0/2017,2000,g 12.0,4.0
# From MPC 75706
P/2005 XA54 (LONEOS-Hill),e,17.1384,143.7652,15.1238,6.049778,0.0662361,0.71096084,261.6913,01/05.0/2017,2000,g 14.0,4.0
# From MPC 75706
P/2005 Y2 (McNaught),e,19.1107,94.5324,194.4026,6.330789,0.0618753,0.46604153,274.1045,01/05.0/2017,2000,g  9.0,4.0
# From MPC 75707
P/2006 D1 (Hill),e,17.3702,359.9710,119.4403,5.565627,0.0750642,0.65971109,306.2897,01/05.0/2017,2000,g 16.0,4.0
# From MPC 75707
P/2006 F1 (Kowalski),e,21.2818,124.7460,186.0813,4.668453,0.0977113,0.11992752,317.6514,01/05.0/2017,2000,g  8.0,4.0
# From MPC 56954
P/2006 F4 (Spacewatch),e,12.3881,184.0461,31.0204,3.528580,0.1486976,0.33781502,220.2925,01/05.0/2017,2000,g 15.0,4.0
# From MPC 58118
P/2006 H1 (McNaught),e,12.8763,0.0686,309.7952,5.734568,0.0717717,0.58074486,283.3300,01/05.0/2017,2000,g 12.5,4.0
# From MPC 75707
P/2006 HR30 (Siding Spring),e,31.9039,309.6533,117.5860,7.807654,0.0451776,0.84199386,165.2999,01/05.0/2017,2000,g 11.0,4.0
# From MPC 73914
C/2006 K4 (NEAT),e,111.3190,116.6584,233.6042,1023,0.0000301,0.99687657,0.0000,11/24.5252/2007,2000,g  6.0,4.0
# From MPC 82313
C/2006 OF2 (Broughton),h,09/11.5976/2008,30.0927,318.4199,95.9950,1.002119,2.458363,2000,5.5,4.0
# From MPC 72849
C/2006 Q1 (McNaught),e,59.1579,199.3085,344.4086,2005,0.0000110,0.99862309,0.0000,07/04.7156/2008,2000,g  5.0,4.0
# From MPC 73461
P/2006 R1 (Siding Spring),e,160.0722,218.8318,249.3522,5.631940,0.0737424,0.70530431,279.2780,01/05.0/2017,2000,g 16.0,4.0
# From MPC 69905
P/2006 S1 (Christensen),e,12.3286,207.9589,133.9459,3.529835,0.1486183,0.60334707,208.1179,01/05.0/2017,2000,g 17.5,4.0
# From MPC 98557
C/2006 S3 (LONEOS),e,166.0232,38.3457,140.0034,47828,0.0000001,0.99989263,0.0000,04/13.3235/2012,2000,g  2.0,4.0
# From MPC 75707
P/2006 S4 (Christensen),e,39.5808,36.1154,305.7238,6.268804,0.0627953,0.50614456,244.3206,01/05.0/2017,2000,g 11.0,4.0
# From MPC 60465
C/2006 S5 (Hill),e,10.1325,281.4198,182.3519,98.13321,0.0010139,0.97302296,0.0000,12/07.8229/2007,2000,g  8.0,4.0
# From MPC 66204
C/2006 U6 (Spacewatch),e,84.7116,179.9783,276.6383,2468,0.0000080,0.99898417,0.0000,06/02.6608/2008,2000,g  8.0,4.0
# From MPC 62580
C/2006 V1 (Catalina),e,31.4459,335.5707,252.9492,155.0177,0.0005107,0.98292861,0.0000,11/26.8676/2007,2000,g  8.0,4.0
# From MPC 75707
P/2006 W1 (Gibbs),e,18.5255,152.6947,231.7037,5.804928,0.0704707,0.70535874,278.0604,01/05.0/2017,2000,g 12.0,4.0
# From MPC 82313
C/2006 W3 (Christensen),e,127.0811,113.5448,133.2598,5858,0.0000022,0.99946989,0.0000,07/06.9467/2009,2000,g  5.0,4.0
# From MPC 75707
P/2007 A2 (Christensen),e,26.5284,300.9728,186.9126,6.308822,0.0621987,0.55859927,226.0686,01/05.0/2017,2000,g 13.5,4.0
# From MPC 59319
P/2007 B1 (Christensen),e,12.3789,77.7036,46.8943,5.807822,0.0704181,0.58153394,255.7102,01/05.0/2017,2000,g 13.5,4.0
# From MPC 66700
C/2007 B2 (Skiff),e,27.6061,14.6893,206.0950,606.5937,0.0000660,0.99511603,0.0000,08/23.5267/2008,2000,g  6.0,4.0
# From MPC 75707
P/2007 C2 (Catalina),e,8.7114,275.8236,179.5421,7.022979,0.0529568,0.46355613,180.5380,01/05.0/2017,2000,g 10.0,4.0
# From MPC 84315
C/2007 D1 (LINEAR),e,41.4871,170.9554,340.2689,2671,0.0000071,0.99670034,0.0000,06/17.5098/2007,2000,g  3.5,4.0
# From MPC 66464
C/2007 G1 (LINEAR),e,88.5160,79.0231,223.8773,3770,0.0000043,0.99929788,0.0000,11/13.2881/2008,2000,g  5.5,4.0
# From MPC 82314
P/2007 K2 (Gibbs),e,7.6608,188.6431,347.5131,7.250832,0.0504803,0.68579449,176.2996,01/05.0/2017,2000,g 14.0,4.0
# From MPC 82314
C/2007 K3 (Siding Spring),e,16.3625,263.2186,23.3194,1419,0.0000184,0.99856767,0.0000,04/20.6206/2008,2000,g  9.5,4.0
# From MPC 87475
